OBJECT_NAME,OBJECT_ID,EPOCH,MEAN_MOTION,ECCENTRICITY,INCLINATION,RA_OF_ASC_NODE,ARG_OF_PERICENTER,MEAN_ANOMALY,EPHEMERIS_TYPE,CLASSIFICATION_TYPE,NORAD_CAT_ID,ELEMENT_SET_NO,REV_AT_EPOCH,BSTAR,MEAN_MOTION_DOT,MEAN_MOTION_DDOT
ARABSAT-6A,2019-021A,2026-06-19T18:09:11.289024,1.00275278,.000148,0.0512,14.7215,338.2272,217.7964,0,U,44186,999,2618,0,.148E-5,0
BEIDOU-3 IGSO-1,2019-023A,2026-06-19T15:08:57.350112,1.00290861,.00255776,58.6985,37.6233,225.7008,349.9014,0,U,44204,999,723,0,-.227E-5,0
TIANHUI 2-01A,2019-024A,2026-06-19T11:14:48.295392,15.16737729,.00015254,97.4799,174.3743,98.2678,261.8728,0,U,44207,999,10248,.74226186E-4,.1389E-4,0
TIANHUI 2-01B,2019-024C,2026-06-19T11:14:48.290208,15.16738599,.00018881,97.4796,174.3727,97.3109,262.8338,0,U,44209,999,39505,.72123506E-4,.1348E-4,0
BEIDOU-2 G8,2019-027A,2026-06-19T18:41:47.816160,1.00269994,.0010137,1.6656,74.5062,282.0800,336.3928,0,U,44231,999,2610,0,-.253E-5,0
RISAT-2B,2019-028A,2026-06-19T19:28:40.676160,15.01667535,.0004022,36.9981,338.5274,48.5222,311.5866,0,U,44233,999,38822,.20968E-3,.2696E-4,0
COSMOS 2534 [GLONASS-M],2019-030A,2026-06-19T14:06:28.099872,2.13102291,.00134837,64.3684,192.5358,275.0708,265.7361,0,U,44299,999,5497,0,.58E-6,0
YAMAL 601,2019-031A,2026-06-19T18:14:33.274176,1.00272372,.0002466,0.0173,30.2872,60.2237,140.1086,0,U,44307,999,2595,0,.114E-5,0
BUFENG 1A,2019-032A,2026-06-19T19:48:18.951840,15.28335424,.0010366,44.9738,42.3683,265.9448,94.0250,0,U,44310,999,38759,.2599E-3,.7024E-4,0
BUFENG 1B,2019-032B,2026-06-19T20:00:50.747616,15.27800257,.0025932,44.9749,355.5874,339.8910,20.0949,0,U,44311,999,38815,.31758E-3,.8575E-4,0
JILIN-1 GAOFEN 3A,2019-032C,2026-06-19T21:18:24.823584,15.32680974,.0006329,44.9757,342.0728,308.3756,51.6560,0,U,44312,999,38825,.34541E-3,.10824E-3,0
TIANQI-3,2019-032E,2026-06-19T19:58:46.850016,15.38722550,.0008663,45.0016,325.0274,328.7082,31.3289,0,U,44314,999,38848,.40229E-3,.15431E-3,0
WT 1B,2019-032G,2026-06-19T19:34:55.312608,15.27221024,.0010004,44.9719,46.5896,262.1286,97.8461,0,U,44316,999,38748,.25531E-3,.6657E-4,0
RCM-1,2019-033A,2026-06-19T13:09:07.651872,14.92588593,.00014388,97.7613,177.9598,89.9348,270.2036,0,U,44322,999,38243,.25366E-6,-.53E-6,0
RCM-3,2019-033B,2026-06-19T20:07:50.016576,14.92587442,.0001499,97.7599,178.3408,89.2888,270.8503,0,U,44323,999,38249,.18057E-4,.13E-5,0
RCM-2,2019-033C,2026-06-19T12:37:07.711680,14.92587737,.00014476,97.7613,177.9825,91.9448,268.1937,0,U,44324,999,38243,.1025808E-5,-.45E-6,0
AT&T T-16,2019-034A,2026-06-19T15:49:04.975104,1.00271427,.000079,0.0205,64.4367,246.1589,93.6973,0,U,44333,999,2565,0,-.121E-5,0
EUTELSAT 7C,2019-034B,2026-06-19T18:02:31.707168,1.00270826,.0003136,0.0725,176.7677,255.3811,113.4606,0,U,44334,999,686,0,.42E-6,0
BEIDOU-3 IGSO-2,2019-035A,2026-06-18T21:16:55.972416,1.00265889,.00396642,55.2463,158.8478,216.5160,330.6306,0,U,44337,999,2568,0,-.97E-6,0
PROX-1,2019-036A,2026-06-19T11:12:42.272352,14.90654850,.00058356,23.9947,99.0214,63.0188,297.0907,0,U,44339,999,37381,.11209756E-2,.11551E-3,0
NPSAT1,2019-036B,2026-06-19T10:02:15.308736,14.74593122,.00070394,23.9977,203.2302,233.0407,126.9444,0,U,44340,999,37282,.52034578E-3,.3793E-4,0
OTB,2019-036C,2026-06-19T18:56:57.803424,14.57214696,.0011017,23.9973,323.8354,33.6578,326.4613,0,U,44341,999,37175,.17082E-3,.1005E-4,0
FORMOSAT 7-3,2019-036E,2026-06-19T08:45:11.217888,15.09810200,.00003832,23.9975,163.5527,321.6123,38.4353,0,U,44343,999,38357,.16487987E-3,.308E-4,0
DSX,2019-036F,2026-06-14T08:02:31.242048,4.54374393,.19672925,42.3307,351.7308,14.6377,350.3681,0,U,44344,999,11566,0,-.44E-6,0
FORMOSAT 7-1,2019-036L,2026-06-19T17:08:11.556096,14.96514586,.0000596,23.9991,15.3581,182.6781,177.3716,0,U,44349,999,38503,.16266E-3,.2196E-4,0
FORMOSAT 7-4,2019-036M,2026-06-19T03:16:25.892256,14.96504151,.00010298,23.9980,81.3564,201.6957,158.3500,0,U,44350,999,38436,.1499381E-3,.2048E-4,0
FORMOSAT 7-2,2019-036N,2026-06-19T07:00:38.036160,14.96505409,.00005687,23.9970,134.6230,184.6903,175.3592,0,U,44351,999,38390,.14516953E-3,.1992E-4,0
FORMOSAT 7-6,2019-036Q,2026-06-19T11:48:18.851040,14.96520280,.0001373,23.9990,314.0938,113.4929,246.5716,0,U,44353,999,38216,.16916727E-3,.2273E-4,0
FORMOSAT 7-5,2019-036V,2026-06-19T12:51:33.595200,14.96525333,.00003877,23.9979,252.5486,140.0151,220.0378,0,U,44358,999,38270,.1398012E-3,.1931E-4,0
METEOR-M2 2,2019-038A,2026-06-19T20:15:02.575584,14.24365678,.0001984,98.9148,158.1685,44.0760,316.0576,0,U,44387,999,36167,-.92883E-4,-.261E-5,0
ICEYE-X4,2019-038D,2026-06-19T21:07:58.657728,15.29343890,.0011446,97.8756,203.9511,296.5301,63.4764,0,U,44390,999,38221,.33475E-3,.9464E-4,0
