ARABSAT-6A              
1 44186U 19021A   26170.75638066  .00000148  00000+0  00000+0 0  9994
2 44186   0.0512  14.7215 0001480 338.2272 217.7964  1.00275278 26188
BEIDOU-3 IGSO-1         
1 44204U 19023A   26170.63121933 -.00000227  00000+0  00000+0 0  9993
2 44204  58.6985  37.6233 0025577 225.7008 349.9014  1.00290861  7230
TIANHUI 2-01A           
1 44207U 19024A   26170.46861453  .00001389  00000+0  74226-4 0  9991
2 44207  97.4799 174.3743 0001525  98.2678 261.8728 15.16737729102483
TIANHUI 2-01B           
1 44209U 19024C   26170.46861447  .00001348  00000+0  72124-4 0  9996
2 44209  97.4796 174.3727 0001888  97.3109 262.8338 15.16738599395056
BEIDOU-2 G8             
1 44231U 19027A   26170.77902565 -.00000253  00000+0  00000+0 0  9999
2 44231   1.6656  74.5062 0010137 282.0800 336.3928  1.00269994 26109
RISAT-2B                
1 44233U 19028A   26170.81158190  .00002696  00000+0  20968-3 0  9995
2 44233  36.9981 338.5274 0004022  48.5222 311.5866 15.01667535388229
COSMOS 2534 [GLONASS-M] 
1 44299U 19030A   26170.58782523  .00000058  00000+0  00000+0 0  9998
2 44299  64.3684 192.5358 0013483 275.0708 265.7361  2.13102291 54978
YAMAL 601               
1 44307U 19031A   26170.76010734  .00000114  00000+0  00000+0 0  9990
2 44307   0.0173  30.2872 0002466  60.2237 140.1086  1.00272372 25956
BUFENG 1A               
1 44310U 19032A   26170.82521935  .00007024  00000+0  25990-3 0  9998
2 44310  44.9738  42.3683 0010366 265.9448  94.0250 15.28335424387598
BUFENG 1B               
1 44311U 19032B   26170.83392069  .00008575  00000+0  31758-3 0  9995
2 44311  44.9749 355.5874 0025932 339.8910  20.0949 15.27800257388159
JILIN-1 GAOFEN 3A       
1 44312U 19032C   26170.88778731  .00010824  00000+0  34541-3 0  9998
2 44312  44.9757 342.0728 0006329 308.3756  51.6560 15.32680974388254
TIANQI-3                
1 44314U 19032E   26170.83248669  .00015431  00000+0  40229-3 0  9996
2 44314  45.0016 325.0274 0008663 328.7082  31.3289 15.38722550388485
WT 1B                   
1 44316U 19032G   26170.81591797  .00006657  00000+0  25531-3 0  9998
2 44316  44.9719  46.5896 0010004 262.1286  97.8461 15.27221024387485
RCM-1                   
1 44322U 19033A   26170.54800523 -.00000053  00000+0  25366-6 0  9990
2 44322  97.7613 177.9598 0001438  89.9348 270.2036 14.92588593382437
RCM-3                   
1 44323U 19033B   26170.83877334  .00000130  00000+0  18057-4 0  9999
2 44323  97.7599 178.3408 0001499  89.2888 270.8503 14.92587442382498
RCM-2                   
1 44324U 19033C   26170.52578370 -.00000045  00000+0  10258-5 0  9996
2 44324  97.7613 177.9825 0001447  91.9448 268.1937 14.92587737382431
AT&T T-16               
1 44333U 19034A   26170.65908536 -.00000121  00000+0  00000+0 0  9995
2 44333   0.0205  64.4367 0000790 246.1589  93.6973  1.00271427 25656
EUTELSAT 7C             
1 44334U 19034B   26170.75175587  .00000042  00000+0  00000+0 0  9990
2 44334   0.0725 176.7677 0003136 255.3811 113.4606  1.00270826  6860
BEIDOU-3 IGSO-2         
1 44337U 19035A   26169.88675894 -.00000097  00000+0  00000+0 0  9993
2 44337  55.2463 158.8478 0039664 216.5160 330.6306  1.00265889 25689
PROX-1                  
1 44339U 19036A   26170.46715593  .00011551  00000+0  11210-2 0  9997
2 44339  23.9947  99.0214 0005835  63.0188 297.0907 14.90654850373819
NPSAT1                  
1 44340U 19036B   26170.41823274  .00003793  00000+0  52035-3 0  9990
2 44340  23.9977 203.2302 0007039 233.0407 126.9444 14.74593122372824
OTB                     
1 44341U 19036C   26170.78955791  .00001005  00000+0  17082-3 0  9998
2 44341  23.9973 323.8354 0011017  33.6578 326.4613 14.57214696371754
FORMOSAT 7-3            
1 44343U 19036E   26170.36471317  .00003080  00000+0  16488-3 0  9995
2 44343  23.9975 163.5527 0000383 321.6123  38.4353 15.09810200383574
DSX                     
1 44344U 19036F   26165.33508382 -.00000044  00000+0  00000+0 0  9997
2 44344  42.3307 351.7308 1967292  14.6377 350.3681  4.54374393115668
FORMOSAT 7-1            
1 44349U 19036L   26170.71402264  .00002196  00000+0  16266-3 0  9996
2 44349  23.9991  15.3581 0000596 182.6781 177.3716 14.96514586385035
FORMOSAT 7-4            
1 44350U 19036M   26170.13641079  .00002048  00000+0  14994-3 0  9995
2 44350  23.9980  81.3564 0001029 201.6957 158.3500 14.96504151384360
FORMOSAT 7-2            
1 44351U 19036N   26170.29210690  .00001992  00000+0  14517-3 0  9992
2 44351  23.9970 134.6230 0000568 184.6903 175.3592 14.96505409383906
FORMOSAT 7-6            
1 44353U 19036Q   26170.49188485  .00002273  00000+0  16917-3 0  9991
2 44353  23.9990 314.0938 0001373 113.4929 246.5716 14.96520280382162
FORMOSAT 7-5            
1 44358U 19036V   26170.53580550  .00001931  00000+0  13980-3 0  9997
2 44358  23.9979 252.5486 0000387 140.0151 220.0378 14.96525333382700
METEOR-M2 2             
1 44387U 19038A   26170.84377981 -.00000261  00000+0 -92883-4 0  9994
2 44387  98.9148 158.1685 0001984  44.0760 316.0576 14.24365678361671
ICEYE-X4                
1 44390U 19038D   26170.88054002  .00009464  00000+0  33475-3 0  9991
2 44390  97.8756 203.9511 0011446 296.5301  63.4764 15.29343890382217
